GLOBALSTAR M024         
1 25883U 99043A   25097.52463855 -.00000047  00000+0  62219-3 0  9996
2 25883  51.9994 180.0626 0000947 344.2212 114.9599 11.10162185107019
GLOBALSTAR M027         
1 25884U 99043B   25097.44372712 -.00000090  00000+0 -99994-3 0  9998
2 25884  52.0198 256.2224 0021057 235.4201 124.4606 11.04371475133428
GLOBALSTAR M054         
1 25885U 99043C   25097.60848315 -.00000060  00000+0  28006-3 0  9996
2 25885  52.0172  34.9966 0006411  52.7689 118.4950 11.39211600111334
GLOBALSTAR M053         
1 25886U 99043D   25097.09241463 -.00000049  00000+0  57608-3 0  9998
2 25886  52.0020 339.3874 0003050 333.0461 176.5701 11.27664129111420
GLOBALSTAR M058         
1 25907U 99049A   25097.85792173 -.00000056  00000+0  38461-3 0  9995
2 25907  51.9942 296.9746 0002713 123.5265 236.5829 11.93196021144350
GLOBALSTAR M050         
1 25908U 99049B   25097.29662076 -.00000083  00000+0  57213-4 0  9999
2 25908  52.0000 311.4457 0008315 248.3589 283.5404 12.07452990139620
GLOBALSTAR M033         
1 25909U 99049C   25097.49837652 -.00000101  00000+0 -85696-4 0  9994
2 25909  51.9902 187.6037 0014045 118.3053 241.9213 12.20289066527114
GLOBALSTAR M055         
1 25910U 99049D   25097.60671306 -.00000069  00000+0  21488-3 0  9991
2 25910  52.0013 201.4834 0006517 348.3994  11.6707 12.29424999159605
